     3.03           N                                       RINEX VERSION / TYPE
MergeRinexNaviV1.0 Test and Assessment Research Center,CSNO PGM / RUN BY / DATE
BROADCAST EPH FROM BDS B1I AND B3I SIGNALS                  COMMENT
BDSA   0.1024E-07  0.2235E-07 -0.4172E-06  0.7749E-06 a C45 IONOSPHERIC CORR
BDSB   0.1147E+06 -0.2949E+06  0.1311E+07 -0.9175E+06 a C45 IONOSPHERIC CORR
BDSA   0.1024E-07  0.2235E-07 -0.4172E-06  0.7749E-06 b C22 IONOSPHERIC CORR
BDSB   0.1147E+06 -0.3113E+06  0.1442E+07 -0.9830E+06 b C22 IONOSPHERIC CORR
BDSA   0.1024E-07  0.2235E-07 -0.4172E-06  0.7749E-06 h C01 IONOSPHERIC CORR
BDSB   0.1024E-07  0.2235E-07 -0.4172E-06  0.7749E-06 h C01 IONOSPHERIC CORR
BDS1   0.1025E+02 -0.2125E+01  0.3875E+01             a C45 IONOSPHERIC CORR
BDS2   0.1875E+01 -0.2875E+01 -0.1250E+00             a C45 IONOSPHERIC CORR
BDS3  -0.6250E+00  0.1000E+01  0.1250E+00             a C45 IONOSPHERIC CORR
BDS1   0.1025E+02 -0.2125E+01  0.3875E+01             b C36 IONOSPHERIC CORR
BDS2   0.1875E+01 -0.2875E+01 -0.1250E+00             b C36 IONOSPHERIC CORR
BDS3  -0.5000E+00  0.1000E+01  0.0000E+00             b C36 IONOSPHERIC CORR
                                                            END OF HEADER
C33 2021 01 06 00 00 00-0.901612569578E-03-0.171285208239E-10 0.000000000000E+00
     0.100000000000E+01-0.760156250000E+02 0.395659337942E-08-0.700865187448E+00
    -0.376300886273E-05 0.232813647017E-03 0.638980418444E-05 0.528262445450E+04
     0.259200000000E+06 0.726431608200E-07 0.458378531203E+00-0.172294676304E-07
     0.963914332021E+00 0.234250000000E+03-0.906007446732E-01-0.701707800375E-08
    -0.143577409147E-09 0.160000000000E+02 0.783000000000E+03 0.000000000000E+00
     0.200000000000E+01 0.000000000000E+00-0.425000000000E-07-0.425000000000E-07
     0.261900000000E+06 0.100000000000E+01
C34 2021 01 06 00 00 00-0.769770704210E-03 0.867839133889E-11 0.000000000000E+00
     0.100000000000E+01-0.113906250000E+02 0.359943564523E-08 0.191842806657E+01
    -0.499654561281E-06 0.462033902295E-03 0.101705081761E-04 0.528263129234E+04
     0.259200000000E+06-0.195577740669E-07-0.164304664109E+01 0.242143869400E-07
     0.963353425823E+00 0.154906250000E+03 0.149918062929E+00-0.682814156236E-08
    -0.671456540289E-10 0.160000000000E+02 0.783000000000E+03 0.000000000000E+00
     0.200000000000E+01 0.000000000000E+00-0.630000007718E-08-0.630000007718E-08
     0.259272000000E+06 0.100000000000E+01
C35 2021 01 06 00 00 00-0.479277339764E-03 0.178044246013E-10 0.000000000000E+00
     0.100000000000E+01 0.210468750000E+02 0.360229290710E-08-0.254671891361E+01
     0.932253897190E-06 0.660360441543E-03 0.102790072560E-04 0.528262624359E+04
     0.259200000000E+06-0.242143869400E-07-0.164318035619E+01-0.488944351673E-07
     0.963422910043E+00 0.150296875000E+03-0.752689082350E-01-0.684064208306E-08
    -0.117504894550E-09 0.160000000000E+02 0.783000000000E+03 0.000000000000E+00
     0.200000000000E+01 0.000000000000E+00-0.280000000000E-08-0.280000000000E-08
     0.259200000000E+06 0.100000000000E+01
C36 2021 01 06 00 00 00-0.784374424256E-03 0.989786030914E-11 0.000000000000E+00
     0.100000000000E+01 0.723281250000E+02 0.436125309227E-08 0.157929678785E+01
     0.359723344445E-05 0.642577419058E-03 0.621424987912E-05 0.528261649704E+04
     0.259200000000E+06 0.805594027042E-07 0.256934931125E+01-0.372529029846E-08
     0.952107193349E+00 0.234484375000E+03-0.132258493271E+01-0.712886837455E-08
     0.221794952936E-09 0.160000000000E+02 0.783000000000E+03 0.000000000000E+00
     0.200000000000E+01 0.000000000000E+00-0.186000000000E-07-0.186000000000E-07
     0.259200000000E+06 0.100000000000E+01
C37 2021 01 06 00 00 00-0.860917149112E-03 0.797584220891E-12 0.000000000000E+00
     0.100000000000E+01 0.701093750000E+02 0.420874673977E-08 0.253872790062E+01
     0.343518331647E-05 0.658832141198E-03 0.678421929479E-05 0.528261924171E+04
     0.259200000000E+06-0.512227416039E-08 0.256918741889E+01 0.735744833946E-07
     0.952119895867E+00 0.217812500000E+03-0.698942112876E+00-0.708350934231E-08
     0.175364447490E-09 0.160000000000E+02 0.783000000000E+03 0.000000000000E+00
     0.200000000000E+01 0.000000000000E+00-0.133000000000E-07-0.133000000000E-07
     0.259200000000E+06 0.100000000000E+01
C38 2021 01 06 00 00 00 0.122195342556E-03 0.233857377907E-11 0.000000000000E+00
     0.100000000000E+01 0.182140625000E+03 0.132255508973E-08-0.658560516580E+00
     0.567641109228E-05 0.174253399018E-02 0.776303932071E-05 0.649307970428E+04
     0.259200000000E+06 0.218860805035E-06-0.769690466732E+00-0.637955963612E-07
     0.973751195069E+00 0.701562500000E+01-0.282351818028E+01-0.250581866312E-08
     0.639669501945E-09 0.160000000000E+02 0.783000000000E+03 0.000000000000E+00
     0.200000000000E+01 0.000000000000E+00 0.520000000000E-08 0.520000000000E-08
     0.259200000000E+06 0.100000000000E+01
C39 2021 01 06 00 00 00 0.271401368082E-04 0.563993296510E-12 0.000000000000E+00
     0.100000000000E+01-0.715156250000E+02 0.701100632227E-09-0.247934533183E+01
    -0.259280204773E-05 0.166132487357E-02 0.298623926938E-04 0.649329691887E+04
     0.259200000000E+06 0.107567757368E-06 0.128512326385E+01 0.558793544769E-07
     0.960659532400E+00-0.679687500000E+03 0.312169644691E+01-0.178936024832E-08
    -0.133219834855E-09 0.160000000000E+02 0.783000000000E+03 0.000000000000E+00
     0.200000000000E+01 0.000000000000E+00 0.420000000000E-08 0.420000000000E-08
     0.259200000000E+06 0.100000000000E+01
C40 2021 01 06 00 00 00 0.118327909149E-03 0.363264973657E-11 0.000000000000E+00
     0.100000000000E+01 0.742187500000E+01 0.140077263352E-08 0.140185927261E+01
     0.232364982367E-06 0.192491244525E-02 0.678282231092E-05 0.649339767647E+04
     0.259200000000E+06 0.114087015390E-06-0.281022613587E+01 0.234693288803E-06
     0.101448700479E+01 0.407031250000E+02-0.293676342805E+01-0.236331272718E-08
    -0.567523639638E-09 0.000000000000E+00 0.783000000000E+03 0.000000000000E+00
     0.200000000000E+01 0.000000000000E+00 0.120000000000E-08 0.120000000000E-08
     0.259200000000E+06 0.100000000000E+01
C41 2021 01 06 00 00 00-0.942021608353E-03 0.722000237374E-11 0.000000000000E+00
     0.100000000000E+01-0.754375000000E+02 0.391123434718E-08 0.189010180324E+00
    -0.365171581507E-05 0.125877698883E-02 0.648619607091E-05 0.528262129211E+04
     0.259200000000E+06-0.484287738800E-07 0.462706025746E+00-0.558793544769E-07
     0.962753842996E+00 0.232671875000E+03-0.176388903457E+01-0.697029034057E-08
    -0.123219418298E-09 0.000000000000E+00 0.783000000000E+03 0.000000000000E+00
     0.200000000000E+01 0.000000000000E+00-0.233000000000E-07-0.233000000000E-07
     0.259260000000E+06 0.000000000000E+00
C42 2021 01 06 00 00 00-0.780742033385E-03-0.231343832979E-10 0.000000000000E+00
     0.100000000000E+01-0.777968750000E+02 0.397445126613E-08 0.141237873470E+01
    -0.379234552383E-05 0.111424573697E-02 0.665849074721E-05 0.528262145233E+04
     0.259200000000E+06 0.614672899246E-07 0.463238804419E+00-0.172294676304E-07
     0.962792153895E+00 0.227281250000E+03-0.141769969691E+01-0.703100715538E-08
    -0.996470078407E-10 0.160000000000E+02 0.783000000000E+03 0.000000000000E+00
     0.200000000000E+01 0.000000000000E+00-0.325000000000E-07-0.325000000000E-07
     0.259200000000E+06 0.100000000000E+01
C43 2021 01 06 00 00 00-0.539036467671E-03-0.171036518282E-10 0.000000000000E+00
     0.100000000000E+01-0.523437500000E+01 0.379872966091E-08 0.130081222492E+01
    -0.931322574616E-07 0.447030179203E-03 0.914838165045E-05 0.528261913300E+04
     0.259200000000E+06 0.321306288242E-07-0.164164493004E+01 0.279396772385E-08
     0.960328863175E+00 0.174031250000E+03 0.973093753832E-02-0.689600153186E-08
    -0.867893294096E-10 0.160000000000E+02 0.783000000000E+03 0.000000000000E+00
     0.200000000000E+01 0.000000000000E+00-0.350000006755E-08-0.350000006755E-08
     0.259902000000E+06 0.100000000000E+01
C44 2021 01 06 00 00 00-0.282479450107E-04 0.194502192130E-10 0.000000000000E+00
     0.100000000000E+01 0.704687500000E+01 0.368015329316E-08 0.281910965763E+01
     0.238418579102E-06 0.651066191495E-03 0.108401291072E-04 0.528262516594E+04
     0.259200000000E+06-0.214204192162E-07-0.164168969826E+01-0.372529029846E-08
     0.960782619401E+00 0.138453125000E+03 0.505708207177E-01-0.681599819940E-08
    -0.985755346381E-10 0.160000000000E+02 0.783000000000E+03 0.000000000000E+00
     0.200000000000E+01 0.000000000000E+00-0.150000000000E-08-0.150000000000E-08
     0.259200000000E+06 0.100000000000E+01
C45 2021 01 06 00 00 00 0.327527057379E-03 0.101030295241E-10 0.000000000000E+00
     0.100000000000E+01 0.727031250000E+02 0.430053627745E-08-0.459800743587E+00
     0.361353158951E-05 0.562660512514E-03 0.659516081214E-05 0.528261460114E+04
     0.259200000000E+06 0.442378222942E-07 0.256949897655E+01-0.270083546638E-07
     0.955994381735E+00 0.226031250000E+03-0.704252479171E-01-0.713601152924E-08
     0.236795577772E-09 0.160000000000E+02 0.783000000000E+03 0.000000000000E+00
     0.200000000000E+01 0.000000000000E+00-0.272000000000E-07-0.272000000000E-07
     0.259200000000E+06 0.100000000000E+01
C46 2021 01 06 00 00 00 0.465521123260E-03-0.175175429717E-10 0.000000000000E+00
     0.100000000000E+01 0.747656250000E+02 0.422339020687E-08 0.115811693526E+01
     0.356649979949E-05 0.855586840771E-03 0.630645081401E-05 0.528262096024E+04
     0.259200000000E+06 0.232830643654E-07 0.257001494337E+01 0.526197254658E-07
     0.956026823406E+00 0.233734375000E+03-0.128653093043E+00-0.705315093490E-08
     0.167506977338E-09 0.160000000000E+02 0.783000000000E+03 0.000000000000E+00
     0.200000000000E+01 0.000000000000E+00-0.210000000000E-07-0.210000000000E-07
     0.259200000000E+06 0.100000000000E+01
